{
  "norad_id": 56128,
  "name": "STARLINK-6122",
  "history": [
    {
      "epoch": "2026-03-28T13:18:20.719008Z",
      "apogee_km": 486.01413067879093,
      "perigee_km": 485.1053772285677,
      "latitude_deg": -2.2879965474014835e-05,
      "longitude_deg": 15.027262658562645,
      "height_km": 485.4592911489289,
      "semi_major_axis_km": 6863.696753953679,
      "eccentricity": 6.62e-05,
      "inclination_deg": 43.0029,
      "raan_deg": 40.5868,
      "arg_perigee_deg": 254.2789,
      "mean_anomaly_deg": 105.7989,
      "mean_motion_rev_day": 15.26741921
    },
    {
      "epoch": "2026-03-29T05:00:25.206912Z",
      "apogee_km": 486.00499481870065,
      "perigee_km": 485.08114348139316,
      "latitude_deg": -4.7398850977669146e-05,
      "longitude_deg": 135.17360955876848,
      "height_km": 485.45614741745584,
      "semi_major_axis_km": 6863.680069150047,
      "eccentricity": 6.73e-05,
      "inclination_deg": 43.0028,
      "raan_deg": 36.8967,
      "arg_perigee_deg": 252.7913,
      "mean_anomaly_deg": 107.2864,
      "mean_motion_rev_day": 15.26747488
    }
  ]
}